OBJECT_NAME,OBJECT_ID,EPOCH,MEAN_MOTION,ECCENTRICITY,INCLINATION,RA_OF_ASC_NODE,ARG_OF_PERICENTER,MEAN_ANOMALY,EPHEMERIS_TYPE,CLASSIFICATION_TYPE,NORAD_CAT_ID,ELEMENT_SET_NO,REV_AT_EPOCH,BSTAR,MEAN_MOTION_DOT,MEAN_MOTION_DDOT
SAUDISAT 1C (SO-50),2002-058C,2026-06-04T09:51:04.686624,14.83018633,.00755045,64.5504,168.5155,264.8060,94.4426,0,U,27607,999,26256,.15984186E-3,.1212E-4,0
SAUDISAT 2,2004-025F,2026-06-04T12:39:36.073440,14.56676307,.00242262,98.5505,155.1824,338.4708,21.5468,0,U,28371,999,16390,.91212561E-4,.359E-5,0
SAUDISAT 3,2007-012B,2026-06-04T17:54:36.819072,14.71418148,.001325,98.1450,106.1392,267.0879,92.8811,0,U,31118,999,2591,.64258E-4,.347E-5,0
PISAT,2016-059B,2026-06-05T02:05:57.183360,14.68962156,.0027619,97.8177,157.0604,242.8973,116.9415,0,U,41784,999,51796,.19209E-3,.1084E-4,0
FLYING LAPTOP,2017-042G,2026-06-05T04:29:01.592736,15.01063045,.0018878,97.4643,312.1861,161.0256,199.1676,0,U,42831,999,48465,.29606E-3,.3742E-4,0
SALSAT,2020-068K,2026-06-04T23:29:13.611264,15.29615280,.0009245,97.8851,158.3021,356.4519,3.6652,0,U,46495,999,31349,.313E-3,.8911E-4,0
